{"type": "FeatureCollection", "features": [ {"type": "Feature", "properties": {"norad_id": 36045, "name": "COSMOS 2251 DEB", "group": "cosmos-2251-debris", "lat": -45.8038748936088, "lon": 48.55072738482506, "alt_km": 689.947084462473, "timestamp": "2025-12-09T05:43:21.123609+00:00", "meta": {"OBJECT_NAME": "COSMOS 2251 DEB", "OBJECT_ID": "1993-036AXG", "EPOCH": "2025-12-06T12:35:46.842144", "MEAN_MOTION": 14.69624154, "ECCENTRICITY": 0.00486216, "INCLINATION": 73.7645, "RA_OF_ASC_NODE": 71.3331, "ARG_OF_PERICENTER": 87.3165, "MEAN_ANOMALY": 273.3569, "EPHEMERIS_TYPE": 0, "CLASSIFICATION_TYPE": "U", "NORAD_CAT_ID": 36045, "ELEMENT_SET_NO": 999, "REV_AT_EPOCH": 8297, "BSTAR": 0.0044051955, "MEAN_MOTION_DOT": 0.00026747, "MEAN_MOTION_DDOT": 0}, "tle": {"line1": "1 36045U 93036AXG 25340.52484771  .00026747  00000+0  44052-2 0  9993", "line2": "2 36045  73.7645  71.3331 0048621  87.3165 273.3569 14.69624154 82974"}}, "geometry": {"type": "Point", "coordinates": [48.55072738482506, -45.8038748936088]}}, {"type": "Feature", "properties": {"norad_id": 36046, "name": "COSMOS 2251 DEB", "group": "cosmos-2251-debris", "lat": 64.556669687043, "lon": -39.71166791724728, "alt_km": 630.5789011807456, "timestamp": "2025-12-09T05:43:21.123619+00:00", "meta": {"OBJECT_NAME": "COSMOS 2251 DEB", "OBJECT_ID": "1993-036AXH", "EPOCH": "2025-12-07T14:53:37.140000", "MEAN_MOTION": 14.65217113, "ECCENTRICITY": 0.00554066, "INCLINATION": 74.0172, "RA_OF_ASC_NODE": 286.36, "ARG_OF_PERICENTER": 73.7608, "MEAN_ANOMALY": 105.7765, "EPHEMERIS_TYPE": 0, "CLASSIFICATION_TYPE": "U", "NORAD_CAT_ID": 36046, "ELEMENT_SET_NO": 999, "REV_AT_EPOCH": 63928, "BSTAR": 0.0010874052, "MEAN_MOTION_DOT": 5.963e-05, "MEAN_MOTION_DDOT": 0}, "tle": {"line1": "1 36046U 93036AXH 25341.62056875  .00005963  00000+0  10874-2 0  9998", "line2": "2 36046  74.0172 286.3600 0055406  73.7608 105.7765 14.65217113639288"}}, "geometry": {"type": "Point", "coordinates": [-39.71166791724728, 64.556669687043]}}, {"type": "Feature", "properties": {"norad_id": 36047, "name": "COSMOS 2251 DEB", "group": "cosmos-2251-debris", "lat": -22.401111579196744, "lon": -25.54752846877657, "alt_km": 580.2989399118906, "timestamp": "2025-12-09T05:43:21.123630+00:00", "meta": {"OBJECT_NAME": "COSMOS 2251 DEB", "OBJECT_ID": "1993-036AXJ", "EPOCH": "2025-12-07T07:16:20.320608", "MEAN_MOTION": 14.95604357, "ECCENTRICITY": 0.00080307, "INCLINATION": 74.0361, "RA_OF_ASC_NODE": 345.134, "ARG_OF_PERICENTER": 10.1198, "MEAN_ANOMALY": 350.0147, "EPHEMERIS_TYPE": 0, "CLASSIFICATION_TYPE": "U", "NORAD_CAT_ID": 36047, "ELEMENT_SET_NO": 999, "REV_AT_EPOCH": 65858, "BSTAR": 0.0028046343, "MEAN_MOTION_DOT": 0.00031273, "MEAN_MOTION_DDOT": 0}, "tle": {"line1": "1 36047U 93036AXJ 25341.30301297  .00031273  00000+0  28046-2 0  9998", "line2": "2 36047  74.0361 345.1340 0008030  10.1198 350.0147 14.95604357658580"}}, "geometry": {"type": "Point", "coordinates": [-25.54752846877657, -22.401111579196744]}}, {"type": "Feature", "properties": {"norad_id": 36048, "name": "COSMOS 2251 DEB", "group": "cosmos-2251-debris", "lat": -73.06130574488559, "lon": -124.09527246091571, "alt_km": 769.4960529135251, "timestamp": "2025-12-09T05:43:21.123641+00:00", "meta": {"OBJECT_NAME": "COSMOS 2251 DEB", "OBJECT_ID": "1993-036AXK", "EPOCH": "2025-12-07T14:36:21.153024", "MEAN_MOTION": 14.37837835, "ECCENTRICITY": 0.0026381, "INCLINATION": 74.0564, "RA_OF_ASC_NODE": 308.721, "ARG_OF_PERICENTER": 359.8811, "MEAN_ANOMALY": 123.0746, "EPHEMERIS_TYPE": 0, "CLASSIFICATION_TYPE": "U", "NORAD_CAT_ID": 36048, "ELEMENT_SET_NO": 999, "REV_AT_EPOCH": 85428, "BSTAR": 0.00053688465, "MEAN_MOTION_DOT": 1.599e-05, "MEAN_MOTION_DDOT": 0}, "tle": {"line1": "1 36048U 93036AXK 25341.60857816  .00001599  00000+0  53688-3 0  9994", "line2": "2 36048  74.0564 308.7210 0026381 359.8811 123.0746 14.37837835854284"}}, "geometry": {"type": "Point", "coordinates": [-124.09527246091571, -73.06130574488559]}}, {"type": "Feature", "properties": {"norad_id": 36049, "name": "COSMOS 2251 DEB", "group": "cosmos-2251-debris", "lat": 69.17710503182425, "lon": 174.73457877701142, "alt_km": 684.8968560608455, "timestamp": "2025-12-09T05:43:21.123651+00:00", "meta": {"OBJECT_NAME": "COSMOS 2251 DEB", "OBJECT_ID": "1993-036AXL", "EPOCH": "2025-12-08T09:40:01.147584", "MEAN_MOTION": 14.62047185, "ECCENTRICITY": 0.00109946, "INCLINATION": 74.0303, "RA_OF_ASC_NODE": 127.4878, "ARG_OF_PERICENTER": 212.8558, "MEAN_ANOMALY": 147.1926, "EPHEMERIS_TYPE": 0, "CLASSIFICATION_TYPE": "U", "NORAD_CAT_ID": 36049, "ELEMENT_SET_NO": 999, "REV_AT_EPOCH": 85301, "BSTAR": 0.0019302227, "MEAN_MOTION_DOT": 9.681e-05, "MEAN_MOTION_DDOT": 0}, "tle": {"line1": "1 36049U 93036AXL 25342.40279106  .00009681  00000+0  19302-2 0  9998", "line2": "2 36049  74.0303 127.4878 0010994 212.8558 147.1926 14.62047185853017"}}, "geometry": {"type": "Point", "coordinates": [174.73457877701142, 69.17710503182425]}}, {"type": "Feature", "properties": {"norad_id": 36050, "name": "COSMOS 2251 DEB", "group": "cosmos-2251-debris", "lat": 18.295931725865948, "lon": -153.4109481598234, "alt_km": 571.6684224238534, "timestamp": "2025-12-09T05:43:21.123662+00:00", "meta": {"OBJECT_NAME": "COSMOS 2251 DEB", "OBJECT_ID": "1993-036AXM", "EPOCH": "2025-12-06T21:38:56.903136", "MEAN_MOTION": 15.00909589, "ECCENTRICITY": 0.00890187, "INCLINATION": 74.0309, "RA_OF_ASC_NODE": 205.9114, "ARG_OF_PERICENTER": 286.8649, "MEAN_ANOMALY": 72.279, "EPHEMERIS_TYPE": 0, "CLASSIFICATION_TYPE": "U", "NORAD_CAT_ID": 36050, "ELEMENT_SET_NO": 999, "REV_AT_EPOCH": 66947, "BSTAR": 0.00085100321, "MEAN_MOTION_DOT": 0.00011772, "MEAN_MOTION_DDOT": 0}, "tle": {"line1": "1 36050U 93036AXM 25340.90204749  .00011772  00000+0  85100-3 0  9998", "line2": "2 36050  74.0309 205.9114 0089018 286.8649  72.2790 15.00909589669475"}}, "geometry": {"type": "Point", "coordinates": [-153.4109481598234, 18.295931725865948]}}, {"type": "Feature", "properties": {"norad_id": 36053, "name": "COSMOS 2251 DEB", "group": "cosmos-2251-debris", "lat": 58.604528575757094, "lon": -48.90342872334068, "alt_km": 673.3706636890438, "timestamp": "2025-12-09T05:43:21.123703+00:00", "meta": {"OBJECT_NAME": "COSMOS 2251 DEB", "OBJECT_ID": "1993-036AXQ", "EPOCH": "2025-12-07T18:35:05.079840", "MEAN_MOTION": 14.57073871, "ECCENTRICITY": 0.00329405, "INCLINATION": 73.8696, "RA_OF_ASC_NODE": 162.2116, "ARG_OF_PERICENTER": 112.9902, "MEAN_ANOMALY": 247.4742, "EPHEMERIS_TYPE": 0, "CLASSIFICATION_TYPE": "U", "NORAD_CAT_ID": 36053, "ELEMENT_SET_NO": 999, "REV_AT_EPOCH": 87372, "BSTAR": 0.0027216261, "MEAN_MOTION_DOT": 0.0001234, "MEAN_MOTION_DDOT": 0}, "tle": {"line1": "1 36053U 93036AXQ 25341.77436435  .00012340  00000+0  27216-2 0  9991", "line2": "2 36053  73.8696 162.2116 0032940 112.9902 247.4742 14.57073871873729"}}, "geometry": {"type": "Point", "coordinates": [-48.90342872334068, 58.604528575757094]}}, {"type": "Feature", "properties": {"norad_id": 36058, "name": "COSMOS 2251 DEB", "group": "cosmos-2251-debris", "lat": -42.65480962536977, "lon": -124.56242528296009, "alt_km": 682.9818630633636, "timestamp": "2025-12-09T05:43:21.123714+00:00", "meta": {"OBJECT_NAME": "COSMOS 2251 DEB", "OBJECT_ID": "1993-036AXV", "EPOCH": "2025-12-07T13:11:34.398816", "MEAN_MOTION": 14.58652352, "ECCENTRICITY": 0.00449501, "INCLINATION": 74.0237, "RA_OF_ASC_NODE": 43.35, "ARG_OF_PERICENTER": 178.9506, "MEAN_ANOMALY": 181.1762, "EPHEMERIS_TYPE": 0, "CLASSIFICATION_TYPE": "U", "NORAD_CAT_ID": 36058, "ELEMENT_SET_NO": 999, "REV_AT_EPOCH": 66035, "BSTAR": 0.0010227034, "MEAN_MOTION_DOT": 4.806e-05, "MEAN_MOTION_DDOT": 0}, "tle": {"line1": "1 36058U 93036AXV 25341.54970369  .00004806  00000+0  10227-2 0  9992", "line2": "2 36058  74.0237  43.3500 0044950 178.9506 181.1762 14.58652352660357"}}, "geometry": {"type": "Point", "coordinates": [-124.56242528296009, -42.65480962536977]}}, {"type": "Feature", "properties": {"norad_id": 36060, "name": "COSMOS 2251 DEB", "group": "cosmos-2251-debris", "lat": -22.051527298554856, "lon": -125.60218123707023, "alt_km": 746.1274834192354, "timestamp": "2025-12-09T05:43:21.123725+00:00", "meta": {"OBJECT_NAME": "COSMOS 2251 DEB", "OBJECT_ID": "1993-036AXX", "EPOCH": "2025-12-08T11:30:47.211840", "MEAN_MOTION": 14.41985708, "ECCENTRICITY": 0.00151476, "INCLINATION": 74.0293, "RA_OF_ASC_NODE": 242.4658, "ARG_OF_PERICENTER": 339.7942, "MEAN_ANOMALY": 20.2612, "EPHEMERIS_TYPE": 0, "CLASSIFICATION_TYPE": "U", "NORAD_CAT_ID": 36060, "ELEMENT_SET_NO": 999, "REV_AT_EPOCH": 84948, "BSTAR": 0.00063963937, "MEAN_MOTION_DOT": 2.074e-05, "MEAN_MOTION_DDOT": 0}, "tle": {"line1": "1 36060U 93036AXX 25342.47971310  .00002074  00000+0  63964-3 0  9997", "line2": "2 36060  74.0293 242.4658 0015147 339.7942  20.2612 14.41985708849481"}}, "geometry": {"type": "Point", "coordinates": [-125.60218123707023, -22.051527298554856]}}, {"type": "Feature", "properties": {"norad_id": 36061, "name": "COSMOS 2251 DEB", "group": "cosmos-2251-debris", "lat": -72.62925752991664, "lon": -107.51502439224139, "alt_km": 812.09021608693, "timestamp": "2025-12-09T05:43:21.123736+00:00", "meta": {"OBJECT_NAME": "COSMOS 2251 DEB", "OBJECT_ID": "1993-036AXY", "EPOCH": "2025-12-08T08:24:20.190816", "MEAN_MOTION": 14.33698686, "ECCENTRICITY": 0.00368149, "INCLINATION": 74.0243, "RA_OF_ASC_NODE": 7.7948, "ARG_OF_PERICENTER": 97.1574, "MEAN_ANOMALY": 263.3766, "EPHEMERIS_TYPE": 0, "CLASSIFICATION_TYPE": "U", "NORAD_CAT_ID": 36061, "ELEMENT_SET_NO": 999, "REV_AT_EPOCH": 65041, "BSTAR": 0.00050814435, "MEAN_MOTION_DOT": 1.395e-05, "MEAN_MOTION_DDOT": 0}, "tle": {"line1": "1 36061U 93036AXY 25342.35023369  .00001395  00000+0  50814-3 0  9992", "line2": "2 36061  74.0243   7.7948 0036814  97.1574 263.3766 14.33698686650411"}}, "geometry": {"type": "Point", "coordinates": [-107.51502439224139, -72.62925752991664]}}]}